SENTINEL-2A             
1 40697U 15028A   20198.28449280 -.00000341  00000-0 -11342-3 0  9993
2 40697  98.5686 272.1148 0001129  89.7448 270.3869 14.30813906264583
AVUM R/B                
1 40698U 15028B   20198.29601292  .00000628  00000-0  32327-4 0  9991
2 40698  98.6409 136.0341 0254482 283.4610  73.8367 14.97806712276590
